NORAD_CAT_ID,OBJECT_NAME,OBJECT_TYPE,EPOCH,MEAN_MOTION,ECCENTRICITY,INCLINATION,RA_OF_ASC_NODE,ARG_OF_PERICENTER,MEAN_ANOMALY,BSTAR,MEAN_MOTION_DOT,MEAN_MOTION_DDOT,TLE_LINE0,TLE_LINE1,TLE_LINE2,SEMIMAJOR_AXIS,PERIOD,APOGEE,PERIGEE,DECAYED
52337.0,STARLINK-3797,PAYLOAD,2022-08-07 13:19:18,15.08843513,0.0001872,53.2177,330.5425,61.0561,299.0619,4.3537e-05,4.05e-06,0.0,0 STARLINK-3797,1 52337U 22045G   22219.55507022  .00000405  00000-0  43537-4 0  9990,2 52337  53.2177 330.5425 0001872  61.0561 299.0619 15.08843513 17851,6917.87,95.437,541.03,538.44,0.0
52337.0,STARLINK-3797,PAYLOAD,2022-08-07 22:00:00,15.08877165,0.0001789,53.2157,328.9199,51.09,114.3207,-0.0033829,-0.0005378,0.0,0 STARLINK-3797,1 52337U 22045G   22219.91667824 -.00053780  00000-0 -33829-2 0  9994,2 52337  53.2157 328.9199 0001789  51.0900 114.3207 15.08877165  1306,6917.767,95.435,540.869,538.394,0.0
52337.0,STARLINK-3797,PAYLOAD,2022-08-08 06:00:00,15.08831097,0.0001618,53.2159,327.4222,55.8822,121.157,0.001928,0.00030522,0.0,0 STARLINK-3797,1 52337U 22045G   22220.25001157  .00030522  00000-0  19280-2 0  9996,2 52337  53.2159 327.4222 0001618  55.8822 121.1570 15.08831097 17956,6917.908,95.438,540.8919999999998,538.653,0.0
52337.0,STARLINK-3797,PAYLOAD,2022-08-08 14:00:01,15.08848769,0.0001771,53.2158,325.9274,49.9431,138.7616,0.00012743,1.741e-05,0.0,0 STARLINK-3797,1 52337U 22045G   22220.58335648  .00001741  00000-0  12743-3 0  9996,2 52337  53.2158 325.9274 0001771  49.9431 138.7616 15.08848769  1306,6917.854,95.437,540.944,538.493,0.0
52337.0,STARLINK-3797,PAYLOAD,2022-08-08 22:00:00,15.08887712,0.0001703,53.2157,324.4304,47.5307,152.722,-0.003956,-0.00062782,0.0,0 STARLINK-3797,1 52337U 22045G   22220.91667824 -.00062782  00000-0 -39560-2 0  9996,2 52337  53.2157 324.4304 0001703  47.5307 152.7220 15.08887712  1302,6917.735,95.435,540.778,538.4209999999998,0.0
52337.0,STARLINK-3797,PAYLOAD,2022-08-09 06:00:00,15.08848368,0.0001613,53.2159,322.9328,53.8765,157.9969,-0.00066073,-0.00010791,0.0,0 STARLINK-3797,1 52337U 22045G   22221.25001157 -.00010791  00000-0 -66073-3 0  9998,2 52337  53.2159 322.9328 0001613  53.8765 157.9969 15.08848368 18108,6917.855,95.437,540.836,538.604,0.0
52337.0,STARLINK-3797,PAYLOAD,2022-08-09 14:00:01,15.08833923,0.0001808,53.216,321.4382,48.6218,174.8472,-0.0018311,-0.00029307,0.0,0 STARLINK-3797,1 52337U 22045G   22221.58334491 -.00029307  00000-0 -18311-2 0  9998,2 52337  53.2160 321.4382 0001808  48.6218 174.8472 15.08833923  1307,6917.899,95.438,541.015,538.513,0.0
52337.0,STARLINK-3797,PAYLOAD,2022-08-09 22:00:00,15.08830731,0.0001699,53.2161,319.9411,45.6032,189.442,-0.0020465,-0.00032703,0.0,0 STARLINK-3797,1 52337U 22045G   22221.91667824 -.00032703  00000-0 -20465-2 0  9991,2 52337  53.2161 319.9411 0001699  45.6032 189.4420 15.08830731  1301,6917.909000000002,95.438,540.9490000000002,538.5980000000002,0.0
52337.0,STARLINK-3797,PAYLOAD,2022-08-10 14:00:01,15.0882107,0.0001833,53.2164,316.9492,46.0547,212.1386,0.00074834,0.00011636,0.0,0 STARLINK-3797,1 52337U 22045G   22222.58334491  .00011636  00000-0  74834-3 0  9996,2 52337  53.2164 316.9492 0001833  46.0547 212.1386 15.08821070  1307,6917.938,95.439,541.071,538.535,0.0
52337.0,STARLINK-3797,PAYLOAD,2022-08-10 17:07:18,15.08806636,0.0001841999999999,53.2165,316.3657,44.0331,201.0573,0.0034375,0.00054796,0.0,0 STARLINK-3797,1 52337U 22045G   22222.71341435  .00054796  00000-0  34375-2 0  9996,2 52337  53.2165 316.3657 0001842  44.0331 201.0573 15.08806636 18320,6917.982,95.44,541.122,538.573,0.0
52337.0,STARLINK-3797,PAYLOAD,2022-08-10 22:00:00,15.08852113,0.0001751999999999,53.2165,315.4521,45.475,224.2919,-0.0018487,-0.000296,0.0,0 STARLINK-3797,1 52337U 22045G   22222.91667824 -.00029600  00000-0 -18487-2 0  9995,2 52337  53.2165 315.4521 0001752  45.4750 224.2919 15.08852113  1302,6917.843000000003,95.437,540.92,538.496,0.0
52337.0,STARLINK-3797,PAYLOAD,2022-08-11 06:00:02,15.08838765,0.0001666999999999,53.2167,313.9548,51.1542,230.2722,0.0017167,0.00027138,0.0,0 STARLINK-3797,1 52337U 22045G   22223.25002315  .00027138  00000-0  17167-2 0  9997,2 52337  53.2167 313.9548 0001667  51.1542 230.2722 15.08838765 18409,6917.884,95.438,540.9019999999998,538.596,0.0
52337.0,STARLINK-3797,PAYLOAD,2022-08-11 14:00:01,15.08845347,0.0001829,53.2167,312.4604,43.995,248.9744,-0.0018201,-0.00029143,0.0,0 STARLINK-3797,1 52337U 22045G   22223.58334491 -.00029143  00000-0 -18201-2 0  9996,2 52337  53.2167 312.4604 0001829  43.9950 248.9744 15.08845347  1303,6917.864000000001,95.437,540.994,538.464,0.0
52337.0,STARLINK-3797,PAYLOAD,2022-08-11 22:00:00,15.08846639,0.0001696999999999,53.2166,310.9632,42.7628,261.7952,-0.0018285999999999,-0.00029278,0.0,0 STARLINK-3797,1 52337U 22045G   22223.91667824 -.00029278  00000-0 -18286-2 0  9994,2 52337  53.2166 310.9632 0001697  42.7628 261.7952 15.08846639 18507,6917.86,95.437,540.899,538.5509999999998,0.0
52337.0,STARLINK-3797,PAYLOAD,2022-08-12 14:00:01,15.08850455,0.0001781,53.2166,307.9715,41.4778,286.2768,-0.0002348,-4.024e-05,0.0,0 STARLINK-3797,1 52337U 22045G   22224.58334491 -.00004024  00000-0 -23480-3 0  9994,2 52337  53.2166 307.9715 0001781  41.4778 286.2768 15.08850455 18600,6917.848000000001,95.437,540.946,538.481,0.0
52337.0,STARLINK-3797,PAYLOAD,2022-08-12 22:00:01,15.08849075,0.0001623,53.2163,306.474,40.8658,298.5573,-0.0021513,-0.00034372,0.0,0 STARLINK-3797,1 52337U 22045G   22224.91668981 -.00034372  00000-0 -21513-2 0  9998,2 52337  53.2163 306.4740 0001623  40.8658 298.5573 15.08849075  1309,6917.853,95.437,540.84,538.595,0.0
52337.0,STARLINK-3797,PAYLOAD,2022-08-13 14:00:01,15.08808479,0.0001793,53.2161,303.4826,42.2552,320.2875,0.00081928,0.00012764,0.0,0 STARLINK-3797,1 52337U 22045G   22225.58334491  .00012764  00000-0  81928-3 0  9994,2 52337  53.2161 303.4826 0001793  42.2552 320.2875 15.08808479  1307,6917.977,95.44,541.082,538.601,0.0
52337.0,STARLINK-3797,PAYLOAD,2022-08-13 22:00:00,15.08829819,0.0001671,53.2157,301.985,43.8722,330.2323,-0.0013973,-0.00022451,0.0,0 STARLINK-3797,1 52337U 22045G   22225.91667824 -.00022451  00000-0 -13973-2 0  9990,2 52337  53.2157 301.9850 0001671  43.8722 330.2323 15.08829819  1303,6917.9119999999975,95.438,540.932,538.621,0.0
52337.0,STARLINK-3797,PAYLOAD,2022-08-14 14:00:01,15.08818415,0.000179,53.2153,298.9936,42.7526,354.5148,0.0018161999999999,0.00028718,0.0,0 STARLINK-3797,1 52337U 22045G   22226.58334491  .00028718  00000-0  18162-2 0  9990,2 52337  53.2153 298.9936 0001790  42.7526 354.5148 15.08818415  1305,6917.946,95.439,541.05,538.573,0.0
52337.0,STARLINK-3797,PAYLOAD,2022-08-14 22:00:00,15.08844554,0.0001666999999999,53.2149,297.4957,45.0917,3.7572,-0.00090433,-0.00014653,0.0,0 STARLINK-3797,1 52337U 22045G   22226.91667824 -.00014653  00000-0 -90433-3 0  9993,2 52337  53.2149 297.4957 0001667  45.0917   3.7572 15.08844554  1307,6917.866,95.437,540.885,538.578,0.0
52337.0,STARLINK-3797,PAYLOAD,2022-08-15 00:00:00,15.08823484,0.0001595999999999,53.2148,297.1213,45.9439,95.8091,0.001749,0.00027644,0.0,0 STARLINK-3797,1 52337U 22045G   22227.00001157  .00027644  00000-0  17490-2 0  9998,2 52337  53.2148 297.1213 0001596  45.9439  95.8091 15.08823484 18975,6917.931,95.439,540.9,538.692,0.0
52337.0,STARLINK-3797,PAYLOAD,2022-08-15 14:00:01,15.08838586,0.0001791,53.2146,294.5043,41.7754,30.2699,0.00021708,3.168e-05,0.0,0 STARLINK-3797,1 52337U 22045G   22227.58334491  .00003168  00000-0  21708-3 0  9994,2 52337  53.2146 294.5043 0001791  41.7754  30.2699 15.08838586  1301,6917.885,95.438,540.989,538.511,0.0
52337.0,STARLINK-3797,PAYLOAD,2022-08-15 22:00:00,15.08831319,0.0001614,53.2144,293.0062,42.8093,40.8364,-0.0011367,-0.00018329,0.0,0 STARLINK-3797,1 52337U 22045G   22227.91667824 -.00018329  00000-0 -11367-2 0  9996,2 52337  53.2144 293.0062 0001614  42.8093  40.8364 15.08831319  1309,6917.906999999997,95.438,540.888,538.655,0.0
52337.0,STARLINK-3797,PAYLOAD,2022-08-16 00:00:00,15.08806258,0.0001564999999999,53.2142,292.6317,42.833,133.7155,0.0020783,0.00032913,0.0,0 STARLINK-3797,1 52337U 22045G   22228.00001157  .00032913  00000-0  20783-2 0  9993,2 52337  53.2142 292.6317 0001565  42.8330 133.7155 15.08806258 19127,6917.984,95.44,540.931,538.766,0.0
52337.0,STARLINK-3797,PAYLOAD,2022-08-16 14:00:01,15.08811758,0.0002082,53.2143,290.0148,40.8845,65.8625,0.0026454,0.00042033,0.0,0 STARLINK-3797,1 52337U 22045G   22228.58334491  .00042033  00000-0  26454-2 0  9991,2 52337  53.2143 290.0148 0002082  40.8845  65.8625 15.08811758  1305,6917.967,95.439,541.2719999999998,538.391,0.0
52337.0,STARLINK-3797,PAYLOAD,2022-08-16 22:00:00,15.0883729,0.0001954,53.2143,288.5166,43.4623,74.8678,-5.786600000000001e-05,-1.209e-05,0.0,0 STARLINK-3797,1 52337U 22045G   22228.91667824 -.00001209  00000-0 -57866-4 0  9992,2 52337  53.2143 288.5166 0001954  43.4623  74.8678 15.08837290  1304,6917.889,95.438,541.105,538.4019999999998,0.0
52337.0,STARLINK-3797,PAYLOAD,2022-08-17 06:00:02,15.08856437,0.0002004,53.2144,287.02,46.2357,83.7437,-0.00084761,-0.00013759,0.0,0 STARLINK-3797,1 52337U 22045G   22229.25002315 -.00013759  00000-0 -84761-3 0  9994,2 52337  53.2144 287.0200 0002004  46.2357  83.7437 15.08856437 19316,6917.83,95.437,541.081,538.309,0.0
52337.0,STARLINK-3797,PAYLOAD,2022-08-17 16:00:00,15.08838581,0.0002179,53.2143,285.1508,40.4942,193.9295,0.0016190999999999,0.00025573,0.0,0 STARLINK-3797,1 52337U 22045G   22229.66667824  .00025573  00000-0  16191-2 0  9997,2 52337  53.2143 285.1508 0002179  40.4942 193.9295 15.08838581  1300,6917.885,95.438,541.257,538.242,0.0
52337.0,STARLINK-3797,PAYLOAD,2022-08-18 08:00:01,15.08886142,0.0002109999999999,53.2148,282.157,43.4757,214.1716,-0.0040853,-0.00064805,0.0,0 STARLINK-3797,1 52337U 22045G   22230.33334491 -.00064805  00000-0 -40853-2 0  9999,2 52337  53.2148 282.1570 0002110  43.4757 214.1716 15.08886142 19470,6917.739000000001,95.435,541.064,538.145,0.0
